{
  "type": "FeatureCollection",
  "features": [
    {
      "type": "Feature",
      "properties": {
        "norad_id": 35201,
        "name": "FENGYUN 1C DEB",
        "group": "fengyun-1c-debris",
        "lat": 65.95387839194599,
        "lon": -169.99205145339604,
        "alt_km": 853.169319770238,
        "timestamp": "2025-12-06T16:45:43.009817+00:00",
        "meta_object_name": "FENGYUN 1C DEB",
        "meta_object_id": "1999-025DPH",
        "meta_epoch": "2025-12-06T07:48:17.642016",
        "meta_mean_motion": 14.11048703,
        "meta_eccentricity": 0.00057709,
        "meta_inclination": 98.7079,
        "meta_ra_of_asc_node": 349.557,
        "meta_arg_of_pericenter": 270.7578,
        "meta_mean_anomaly": 106.9618,
        "meta_ephemeris_type": 0,
        "meta_classification_type": "U",
        "meta_norad_cat_id": 35201,
        "meta_element_set_no": 999,
        "meta_rev_at_epoch": 86929,
        "meta_bstar": 0.00021062979,
        "meta_mean_motion_dot": 3.36e-06,
        "meta_mean_motion_ddot": 0,
        "tle_line1": "1 35201U 99025DPH 25340.32520419  .00000336  00000+0  21063-3 0  9992",
        "tle_line2": "2 35201  98.7079 349.5570 0005770 270.7578 106.9618 14.11048703869295"
      },
      "geometry": {
        "type": "Point",
        "coordinates": [
          -169.99205145339604,
          65.95387839194599
        ]
      }
    },
    {
      "type": "Feature",
      "properties": {
        "norad_id": 35202,
        "name": "FENGYUN 1C DEB",
        "group": "fengyun-1c-debris",
        "lat": -79.77104954465823,
        "lon": 125.00151805320267,
        "alt_km": 1242.870861424597,
        "timestamp": "2025-12-06T16:45:43.009827+00:00",
        "meta_object_name": "FENGYUN 1C DEB",
        "meta_object_id": "1999-025DPJ",
        "meta_epoch": "2025-11-30T10:05:49.025184",
        "meta_mean_motion": 13.34730307,
        "meta_eccentricity": 0.03739167,
        "meta_inclination": 100.0942,
        "meta_ra_of_asc_node": 19.5924,
        "meta_arg_of_pericenter": 37.6604,
        "meta_mean_anomaly": 325.0083,
        "meta_ephemeris_type": 0,
        "meta_classification_type": "U",
        "meta_norad_cat_id": 35202,
        "meta_element_set_no": 999,
        "meta_rev_at_epoch": 56812,
        "meta_bstar": 0.00081043758,
        "meta_mean_motion_dot": 5.61e-06,
        "meta_mean_motion_ddot": 0,
        "tle_line1": "1 35202U 99025DPJ 25334.42070631  .00000561  00000+0  81044-3 0  9998",
        "tle_line2": "2 35202 100.0942  19.5924 0373916  37.6604 325.0083 13.34730307568129"
      },
      "geometry": {
        "type": "Point",
        "coordinates": [
          125.00151805320267,
          -79.77104954465823
        ]
      }
    },
    {
      "type": "Feature",
      "properties": {
        "norad_id": 35203,
        "name": "FENGYUN 1C DEB",
        "group": "fengyun-1c-debris",
        "lat": 2.7855840366931086,
        "lon": 127.28140035055202,
        "alt_km": 778.0646205140329,
        "timestamp": "2025-12-06T16:45:43.009838+00:00",
        "meta_object_name": "FENGYUN 1C DEB",
        "meta_object_id": "1999-025DPK",
        "meta_epoch": "2025-12-06T05:00:59.542272",
        "meta_mean_motion": 13.26399216,
        "meta_eccentricity": 0.05115131,
        "meta_inclination": 102.0754,
        "meta_ra_of_asc_node": 306.1141,
        "meta_arg_of_pericenter": 173.6247,
        "meta_mean_anomaly": 187.1713,
        "meta_ephemeris_type": 0,
        "meta_classification_type": "U",
        "meta_norad_cat_id": 35203,
        "meta_element_set_no": 999,
        "meta_rev_at_epoch": 59564,
        "meta_bstar": 0.0024845166,
        "meta_mean_motion_dot": 2.18e-05,
        "meta_mean_motion_ddot": 0,
        "tle_line1": "1 35203U 99025DPK 25340.20902248  .00002180  00000+0  24845-2 0  9994",
        "tle_line2": "2 35203 102.0754 306.1141 0511513 173.6247 187.1713 13.26399216595645"
      },
      "geometry": {
        "type": "Point",
        "coordinates": [
          127.28140035055202,
          2.7855840366931086
        ]
      }
    },
    {
      "type": "Feature",
      "properties": {
        "norad_id": 35204,
        "name": "FENGYUN 1C DEB",
        "group": "fengyun-1c-debris",
        "lat": -73.93622514454626,
        "lon": -157.74852857628608,
        "alt_km": 722.5379337588101,
        "timestamp": "2025-12-06T16:45:43.009868+00:00",
        "meta_object_name": "FENGYUN 1C DEB",
        "meta_object_id": "1999-025DPL",
        "meta_epoch": "2025-12-03T00:17:34.201824",
        "meta_mean_motion": 14.4851708,
        "meta_eccentricity": 0.00393907,
        "meta_inclination": 99.0057,
        "meta_ra_of_asc_node": 164.9047,
        "meta_arg_of_pericenter": 352.2699,
        "meta_mean_anomaly": 159.62,
        "meta_ephemeris_type": 0,
        "meta_classification_type": "U",
        "meta_norad_cat_id": 35204,
        "meta_element_set_no": 999,
        "meta_rev_at_epoch": 90789,
        "meta_bstar": 0.0029447199,
        "meta_mean_motion_dot": 0.00011129,
        "meta_mean_motion_ddot": 0,
        "tle_line1": "1 35204U 99025DPL 25337.01220141  .00011129  00000+0  29447-2 0  9991",
        "tle_line2": "2 35204  99.0057 164.9047 0039390 352.2699 159.6200 14.48517080907891"
      },
      "geometry": {
        "type": "Point",
        "coordinates": [
          -157.74852857628608,
          -73.93622514454626
        ]
      }
    },
    {
      "type": "Feature",
      "properties": {
        "norad_id": 35207,
        "name": "FENGYUN 1C DEB",
        "group": "fengyun-1c-debris",
        "lat": 51.88810093619282,
        "lon": 67.53445503896747,
        "alt_km": 733.0481654046198,
        "timestamp": "2025-12-06T16:45:43.009879+00:00",
        "meta_object_name": "FENGYUN 1C DEB",
        "meta_object_id": "1999-025DPP",
        "meta_epoch": "2025-11-29T17:50:26.900160",
        "meta_mean_motion": 14.55080945,
        "meta_eccentricity": 0.0054743,
        "meta_inclination": 98.6905,
        "meta_ra_of_asc_node": 71.5483,
        "meta_arg_of_pericenter": 294.9923,
        "meta_mean_anomaly": 64.5593,
        "meta_ephemeris_type": 0,
        "meta_classification_type": "U",
        "meta_norad_cat_id": 35207,
        "meta_element_set_no": 999,
        "meta_rev_at_epoch": 64715,
        "meta_bstar": 0.0019605249,
        "meta_mean_motion_dot": 8.586e-05,
        "meta_mean_motion_ddot": 0,
        "tle_line1": "1 35207U 99025DPP 25333.74336690  .00008586  00000+0  19605-2 0  9995",
        "tle_line2": "2 35207  98.6905  71.5483 0054743 294.9923  64.5593 14.55080945647151"
      },
      "geometry": {
        "type": "Point",
        "coordinates": [
          67.53445503896747,
          51.88810093619282
        ]
      }
    },
    {
      "type": "Feature",
      "properties": {
        "norad_id": 35208,
        "name": "FENGYUN 1C DEB",
        "group": "fengyun-1c-debris",
        "lat": 8.741762829304903,
        "lon": -178.55588351549724,
        "alt_km": 823.6190111303958,
        "timestamp": "2025-12-06T16:45:43.009890+00:00",
        "meta_object_name": "FENGYUN 1C DEB",
        "meta_object_id": "1999-025DPQ",
        "meta_epoch": "2025-11-27T19:11:53.318688",
        "meta_mean_motion": 13.99599013,
        "meta_eccentricity": 0.01006373,
        "meta_inclination": 98.9056,
        "meta_ra_of_asc_node": 351.4058,
        "meta_arg_of_pericenter": 197.6504,
        "meta_mean_anomaly": 162.1154,
        "meta_ephemeris_type": 0,
        "meta_classification_type": "U",
        "meta_norad_cat_id": 35208,
        "meta_element_set_no": 999,
        "meta_rev_at_epoch": 90354,
        "meta_bstar": 0.00091687477,
        "meta_mean_motion_dot": 1.356e-05,
        "meta_mean_motion_ddot": 0,
        "tle_line1": "1 35208U 99025DPQ 25331.79992267  .00001356  00000+0  91687-3 0  9996",
        "tle_line2": "2 35208  98.9056 351.4058 0100637 197.6504 162.1154 13.99599013903542"
      },
      "geometry": {
        "type": "Point",
        "coordinates": [
          -178.55588351549724,
          8.741762829304903
        ]
      }
    },
    {
      "type": "Feature",
      "properties": {
        "norad_id": 35210,
        "name": "FENGYUN 1C DEB",
        "group": "fengyun-1c-debris",
        "lat": 80.37786412049742,
        "lon": -124.89960809418301,
        "alt_km": 806.4808423389859,
        "timestamp": "2025-12-06T16:45:43.009901+00:00",
        "meta_object_name": "FENGYUN 1C DEB",
        "meta_object_id": "1999-025DPS",
        "meta_epoch": "2025-12-05T23:50:18.341376",
        "meta_mean_motion": 14.33492757,
        "meta_eccentricity": 0.00493395,
        "meta_inclination": 99.0965,
        "meta_ra_of_asc_node": 343.4463,
        "meta_arg_of_pericenter": 258.927,
        "meta_mean_anomaly": 157.4301,
        "meta_ephemeris_type": 0,
        "meta_classification_type": "U",
        "meta_norad_cat_id": 35210,
        "meta_element_set_no": 999,
        "meta_rev_at_epoch": 90026,
        "meta_bstar": 0.004026418,
        "meta_mean_motion_dot": 0.0001125,
        "meta_mean_motion_ddot": 0,
        "tle_line1": "1 35210U 99025DPS 25339.99326784  .00011250  00000+0  40264-2 0  9992",
        "tle_line2": "2 35210  99.0965 343.4463 0049339 258.9270 157.4301 14.33492757900262"
      },
      "geometry": {
        "type": "Point",
        "coordinates": [
          -124.89960809418301,
          80.37786412049742
        ]
      }
    }
  ]
}